{"type":"FeatureCollection","features":[{"type":"Feature","properties":{"region_id":"01","region_name":"Ilocos Region","region_short":"Region I"},"geometry":{"type":"MultiPolygon","coordinates":[[[[119.99,16.35],[120.02,16.31],[120.0,16.28],[120.02,16.24],[119.99,16.22],[119.92,16.3],[119.95,16.33],[119.96,16.3],[119.97,16.34],[119.99,16.35]]],[[[119.93,16.43],[119.96,16.37],[119.91,16.39],[119.91,16.42],[119.93,16.43]]],[[[119.92,15.81],[119.88,15.81],[119.91,15.84],[119.85,15.97],[119.77,15.91],[119.75,15.96],[119.78,16.13],[119.75,16.17],[119.78,16.24],[119.78,16.31],[119.82,16.36],[119.86,16.36],[119.88,16.39],[119.92,16.38],[119.91,16.24],[119.98,16.22],[120.02,16.17],[120.04,16.19],[120.09,16.17],[120.11,16.15],[120.09,16.14],[120.11,16.08],[120.1,16.07],[120.16,16.01],[120.14,16.04],[120.33,16.06],[120.4,16.11],[120.38,16.12],[120.42,16.17],[120.4,16.25],[120.36,16.27],[120.38,16.24],[120.35,16.28],[120.33,16.47],[120.3,16.5],[120.33,16.52],[120.31,16.52],[120.32,16.57],[120.28,16.62],[120.31,16.61],[120.34,16.68],[120.34,16.84],[120.4,16.88],[120.45,16.98],[120.45,17.09],[120.44,17.08],[120.4,17.21],[120.43,17.29],[120.43,17.34],[120.48,17.39],[120.46,17.38],[120.42,17.5],[120.4,17.49],[120.42,17.51],[120.41,17.53],[120.39,17.52],[120.35,17.56],[120.37,17.67],[120.35,17.68],[120.44,17.73],[120.4,17.8],[120.46,17.83],[120.43,17.92],[120.5,18.0],[120.47,18.09],[120.51,18.13],[120.52,18.18],[120.55,18.2],[120.52,18.2],[120.6,18.33],[120.6,18.41],[120.56,18.49],[120.62,18.55],[120.71,18.53],[120.77,18.54],[120.78,18.62],[120.85,18.65],[120.91,18.56],[120.98,18.58],[120.94,18.37],[120.98,18.17],[120.94,18.1],[120.94,18.0],[120.91,17.95],[120.83,17.96],[120.73,17.89],[120.69,17.83],[120.58,17.8],[120.5,17.65],[120.47,17.5],[120.48,17.48],[120.53,17.5],[120.59,17.48],[120.54,17.35],[120.56,17.31],[120.61,17.31],[120.68,17.26],[120.67,17.19],[120.69,17.16],[120.76,17.16],[120.8,17.19],[120.86,17.19],[120.78,17.11],[120.78,16.93],[120.64,16.9],[120.61,16.69],[120.47,16.5],[120.51,16.24],[120.66,16.19],[120.77,16.2],[120.84,16.17],[120.92,15.98],[120.91,15.92],[120.82,15.79],[120.74,15.85],[120.61,15.83],[120.59,15.89],[120.55,15.77],[120.48,15.73],[120.39,15.77],[120.32,15.67],[120.32,15.65],[120.25,15.62],[120.15,15.82],[120.09,15.81],[120.03,15.85],[119.99,15.79],[119.92,15.81]]]]}},{"type":"Feature","properties":{"region_id":"02","region_name":"Cagayan Valley","region_short":"Region II"},"geometry":{"type":"MultiPolygon","coordinates":[[[[122.13,18.58],[122.16,18.58],[122.15,18.52],[122.11,18.5],[122.11,18.56],[122.13,18.58]]],[[[121.12,18.63],[121.2,18.61],[121.42,18.46],[121.61,18.37],[121.62,18.35],[121.59,18.37],[121.65,18.29],[121.63,18.36],[121.9,18.27],[121.82,18.29],[121.86,18.26],[122.01,18.29],[122.1,18.38],[122.13,18.38],[122.15,18.51],[122.24,18.52],[122.25,18.45],[122.31,18.39],[122.34,18.31],[122.3,18.22],[122.17,18.09],[122.19,18.02],[122.17,17.95],[122.18,17.94],[122.19,17.9],[122.14,17.79],[122.17,17.7],[122.16,17.61],[122.19,17.51],[122.25,17.41],[122.25,17.36],[122.31,17.33],[122.37,17.35],[122.4,17.29],[122.39,17.34],[122.41,17.33],[122.44,17.26],[122.44,17.24],[122.41,17.28],[122.42,17.14],[122.47,17.12],[122.45,17.12],[122.45,17.1],[122.45,17.12],[122.51,17.14],[122.53,17.1],[122.47,16.98],[122.44,16.8],[122.28,16.53],[122.13,16.53],[122.06,16.49],[121.84,16.23],[121.28,15.77],[121.2,15.91],[121.18,16.09],[121.03,16.13],[120.88,16.11],[120.84,16.17],[120.77,16.2],[120.76,16.24],[120.81,16.32],[120.85,16.32],[120.86,16.35],[120.89,16.43],[120.91,16.6],[121.29,16.66],[121.34,16.78],[121.44,16.84],[121.51,16.84],[121.57,16.87],[121.59,16.92],[121.56,17.05],[121.55,17.28],[121.6,17.4],[121.67,17.44],[121.67,17.5],[121.55,17.61],[121.48,17.67],[121.44,17.67],[121.43,17.74],[121.38,17.79],[121.31,17.82],[121.42,18.03],[121.46,18.05],[121.49,18.23],[121.47,18.31],[121.29,18.39],[121.25,18.43],[121.09,18.49],[121.09,18.54],[121.04,18.53],[121.0,18.47],[120.96,18.45],[120.97,18.58],[121.03,18.62],[121.09,18.6],[121.1,18.63],[121.12,18.63]]],[[[121.42,18.91],[121.48,18.87],[121.35,18.84],[121.28,18.86],[121.28,18.88],[121.42,18.91]]],[[[121.92,19.0],[121.95,19.0],[121.99,18.94],[121.89,18.87],[121.85,18.81],[121.83,18.88],[121.87,18.89],[121.85,18.92],[121.87,18.97],[121.92,19.0]]],[[[121.22,19.17],[121.25,19.1],[121.25,19.01],[121.2,19.07],[121.22,19.17]]],[[[121.41,19.39],[121.49,19.37],[121.52,19.39],[121.54,19.27],[121.51,19.24],[121.4,19.28],[121.39,19.33],[121.35,19.36],[121.41,19.39]]],[[[121.97,19.57],[121.99,19.51],[121.96,19.48],[121.89,19.54],[121.97,19.57]]],[[[121.85,20.36],[121.89,20.31],[121.86,20.26],[121.84,20.29],[121.85,20.36]]],[[[122.0,20.49],[122.04,20.46],[121.96,20.41],[121.97,20.37],[121.92,20.35],[121.93,20.41],[121.97,20.45],[121.96,20.47],[122.0,20.49]]],[[[121.93,20.71],[121.94,20.7],[121.92,20.7],[121.93,20.71]]],[[[121.86,20.83],[121.88,20.81],[121.88,20.76],[121.8,20.69],[121.78,20.72],[121.84,20.82],[121.86,20.83]]]]}},{"type":"Feature","properties":{"region_id":"03","region_name":"Central Luzon","region_short":"Region III"},"geometry":{"type":"MultiPolygon","coordinates":[[[[120.61,14.39],[120.62,14.38],[120.56,14.38],[120.61,14.39]]],[[[119.92,15.81],[119.99,15.79],[120.03,15.85],[120.09,15.81],[120.15,15.82],[120.25,15.62],[120.32,15.65],[120.32,15.67],[120.39,15.77],[120.48,15.73],[120.55,15.77],[120.59,15.89],[120.61,15.83],[120.74,15.85],[120.82,15.79],[120.86,15.83],[120.92,15.98],[120.88,16.11],[120.99,16.13],[121.18,16.09],[121.2,15.91],[121.28,15.77],[121.84,16.23],[122.06,16.49],[122.13,16.53],[122.27,16.52],[122.2,16.43],[122.22,16.39],[122.24,16.42],[122.18,16.3],[122.2,16.29],[122.24,16.31],[122.21,16.24],[122.07,16.12],[122.07,16.09],[122.03,16.05],[121.99,16.03],[122.09,16.17],[122.1,16.2],[122.13,16.23],[122.13,16.26],[122.07,16.24],[122.08,16.19],[122.02,16.18],[121.94,16.13],[121.87,16.12],[121.78,16.06],[121.74,16.07],[121.55,15.9],[121.55,15.79],[121.57,15.75],[121.64,15.75],[121.64,15.7],[121.61,15.71],[121.59,15.67],[121.61,15.67],[121.62,15.65],[121.49,15.52],[121.48,15.42],[121.43,15.36],[121.4,15.38],[121.37,15.34],[121.42,15.22],[121.38,15.17],[121.4,15.16],[121.39,15.11],[121.34,15.04],[121.35,14.89],[121.18,14.83],[121.13,14.76],[121.06,14.78],[120.99,14.71],[120.94,14.73],[120.96,14.69],[120.95,14.68],[120.9,14.71],[120.92,14.75],[120.9,14.75],[120.88,14.71],[120.82,14.78],[120.8,14.75],[120.76,14.76],[120.76,14.78],[120.75,14.76],[120.68,14.78],[120.65,14.77],[120.71,14.86],[120.65,14.77],[120.62,14.8],[120.64,14.87],[120.61,14.8],[120.57,14.85],[120.59,14.82],[120.55,14.79],[120.55,14.72],[120.61,14.53],[120.6,14.46],[120.56,14.42],[120.5,14.44],[120.5,14.41],[120.48,14.41],[120.45,14.45],[120.39,14.46],[120.37,14.52],[120.39,14.59],[120.37,14.63],[120.31,14.63],[120.25,14.69],[120.25,14.73],[120.28,14.74],[120.24,14.76],[120.3,14.82],[120.23,14.88],[120.2,14.87],[120.21,14.82],[120.18,14.74],[120.08,14.79],[120.11,14.82],[120.08,14.81],[120.08,14.85],[120.05,14.9],[120.07,15.02],[120.02,15.27],[119.89,15.43],[119.92,15.45],[119.9,15.49],[119.94,15.48],[119.97,15.51],[119.94,15.56],[119.95,15.57],[119.92,15.56],[119.92,15.59],[119.9,15.62],[119.93,15.69],[119.87,15.73],[119.91,15.75],[119.89,15.81],[119.92,15.81]]]]}},{"type":"Feature","properties":{"region_id":"04","region_name":"CALABARZON","region_short":"Region IV-A"},"geometry":{"type":"MultiPolygon","coordinates":[[[[121.09,13.57],[121.1,13.53],[121.08,13.53],[121.04,13.57],[121.09,13.57]]],[[[120.83,13.69],[120.95,13.64],[120.87,13.63],[120.84,13.65],[120.83,13.69]]],[[[121.76,13.94],[121.79,13.94],[121.79,13.88],[121.79,13.91],[121.74,13.89],[121.76,13.94]]],[[[121.97,14.2],[122.13,14.09],[122.19,14.01],[122.16,14.0],[121.99,14.11],[121.91,14.19],[121.93,14.24],[121.97,14.2]]],[[[121.83,14.3],[121.85,14.3],[121.82,14.25],[121.8,14.29],[121.83,14.3]]],[[[122.41,14.73],[122.44,14.7],[122.42,14.69],[122.31,14.68],[122.34,14.71],[122.41,14.73]]],[[[122.14,14.84],[122.13,14.83],[122.21,14.84],[122.19,14.81],[122.26,14.79],[122.26,14.73],[122.11,14.8],[122.09,14.84],[122.14,14.84]]],[[[122.02,14.88],[122.08,14.84],[122.02,14.85],[122.02,14.88]]],[[[121.95,15.06],[122.02,15.03],[122.01,15.01],[122.05,15.01],[122.06,14.96],[122.01,14.99],[121.99,14.96],[122.02,14.97],[122.02,14.92],[121.97,14.91],[121.98,14.84],[122.02,14.81],[122.04,14.71],[121.94,14.63],[121.9,14.68],[121.9,14.72],[121.94,14.71],[121.91,14.8],[121.83,14.96],[121.83,14.93],[121.8,14.94],[121.84,15.04],[121.87,15.02],[121.95,15.06]]],[[[121.41,15.22],[121.48,15.18],[121.51,15.05],[121.61,14.85],[121.6,14.83],[121.73,14.7],[121.69,14.71],[121.63,14.66],[121.62,14.69],[121.6,14.65],[121.66,14.4],[121.73,14.33],[121.73,14.27],[121.76,14.25],[121.73,14.18],[121.77,14.12],[121.95,13.99],[122.1,13.92],[122.23,13.9],[122.24,13.94],[122.2,13.96],[122.18,13.99],[122.3,13.96],[122.29,13.99],[122.32,14.02],[122.29,14.02],[122.29,14.04],[122.2,14.09],[122.16,14.16],[122.19,14.14],[122.18,14.16],[122.22,14.19],[122.25,14.18],[122.25,14.24],[122.27,14.25],[122.26,14.17],[122.27,14.12],[122.31,14.14],[122.3,14.07],[122.39,14.07],[122.44,14.15],[122.79,14.01],[122.55,13.95],[122.53,13.96],[122.52,13.92],[122.45,13.93],[122.42,13.95],[122.52,13.82],[122.51,13.77],[122.52,13.73],[122.48,13.71],[122.5,13.65],[122.55,13.58],[122.63,13.53],[122.62,13.51],[122.56,13.56],[122.68,13.38],[122.68,13.27],[122.7,13.22],[122.62,13.17],[122.56,13.18],[122.5,13.24],[122.52,13.35],[122.4,13.52],[122.33,13.56],[122.32,13.59],[122.28,13.57],[122.26,13.58],[122.27,13.61],[122.21,13.6],[122.1,13.78],[122.05,13.77],[122.03,13.81],[121.98,13.81],[121.97,13.84],[121.89,13.86],[121.87,13.9],[121.83,13.89],[121.82,13.94],[121.75,13.97],[121.7,13.96],[121.71,13.92],[121.62,13.89],[121.6,13.9],[121.45,13.82],[121.43,13.74],[121.44,13.7],[121.47,13.68],[121.42,13.65],[121.38,13.67],[121.29,13.6],[121.18,13.64],[121.08,13.62],[121.04,13.63],[121.06,13.75],[121.06,13.74],[121.0,13.78],[120.96,13.77],[120.89,13.68],[120.87,13.72],[120.93,13.78],[120.9,13.82],[120.91,13.88],[120.87,13.9],[120.72,13.93],[120.7,13.9],[120.72,13.84],[120.65,13.86],[120.67,13.77],[120.62,13.81],[120.6,13.97],[120.63,13.98],[120.61,14.03],[120.64,14.05],[120.62,14.06],[120.62,14.12],[120.57,14.14],[120.61,14.15],[120.57,14.17],[120.61,14.18],[120.58,14.19],[120.59,14.23],[120.62,14.22],[120.62,14.27],[120.65,14.29],[120.71,14.28],[120.87,14.43],[120.91,14.5],[120.92,14.48],[120.89,14.45],[120.97,14.48],[121.01,14.35],[121.05,14.37],[121.06,14.49],[121.11,14.53],[121.1,14.63],[121.13,14.66],[121.1,14.68],[121.13,14.74],[121.11,14.76],[121.18,14.83],[121.35,14.89],[121.34,15.04],[121.39,15.11],[121.4,15.16],[121.38,15.17],[121.41,15.22]]]]}},{"type":"Feature","properties":{"region_id":"05","region_name":"Bicol Region","region_short":"Region V"},"geometry":{"type":"MultiPolygon","coordinates":[[[[123.24,12.6],[123.38,12.54],[123.34,12.54],[123.36,12.48],[123.32,12.47],[123.33,12.43],[123.36,12.47],[123.39,12.47],[123.37,12.51],[123.45,12.52],[123.54,12.45],[123.56,12.46],[123.57,12.41],[123.61,12.38],[123.57,12.35],[123.63,12.38],[123.65,12.34],[123.69,12.33],[123.78,12.2],[123.8,12.24],[123.85,12.19],[123.87,12.22],[123.89,12.21],[124.05,11.97],[124.05,11.95],[124.0,12.01],[124.07,11.85],[124.07,11.72],[123.92,11.87],[123.94,11.89],[123.9,11.86],[123.86,11.91],[123.72,11.93],[123.71,11.96],[123.75,11.98],[123.65,12.05],[123.64,12.07],[123.66,12.08],[123.6,12.07],[123.61,12.1],[123.54,12.23],[123.54,12.21],[123.5,12.22],[123.43,12.2],[123.37,12.11],[123.32,12.08],[123.3,12.02],[123.16,11.91],[123.14,11.93],[123.2,12.02],[123.22,12.13],[123.26,12.12],[123.24,12.14],[123.28,12.16],[123.27,12.2],[123.28,12.21],[123.28,12.19],[123.3,12.2],[123.31,12.25],[123.29,12.22],[123.26,12.25],[123.23,12.22],[123.22,12.24],[123.23,12.24],[123.22,12.27],[123.27,12.33],[123.26,12.38],[123.29,12.44],[123.25,12.46],[123.24,12.6]]],[[[123.62,12.69],[123.71,12.62],[123.71,12.6],[123.73,12.61],[123.72,12.58],[123.79,12.41],[123.79,12.34],[123.58,12.63],[123.58,12.65],[123.61,12.63],[123.6,12.67],[123.62,12.69]]],[[[123.0,13.16],[123.04,13.14],[123.03,13.1],[123.05,13.12],[123.18,12.91],[123.28,12.89],[123.29,12.82],[123.38,12.69],[123.33,12.72],[123.26,12.83],[123.2,12.84],[123.14,12.89],[123.15,12.91],[123.08,12.96],[123.06,13.0],[122.99,13.01],[122.96,13.04],[122.95,13.03],[122.96,13.08],[122.93,13.11],[122.98,13.12],[123.0,13.16]]],[[[124.13,13.24],[124.2,13.21],[124.22,13.18],[124.06,13.21],[124.13,13.24]]],[[[123.98,13.28],[123.98,13.26],[124.0,13.29],[124.03,13.26],[124.04,13.28],[124.1,13.26],[124.02,13.22],[123.95,13.23],[123.91,13.29],[123.98,13.28]]],[[[123.94,13.32],[123.95,13.31],[123.93,13.31],[123.94,13.32]]],[[[123.85,13.35],[123.93,13.33],[123.89,13.28],[123.91,13.24],[123.88,13.22],[123.84,13.27],[123.85,13.35]]],[[[123.77,13.41],[123.85,13.37],[123.83,13.34],[123.77,13.41]]],[[[123.82,13.98],[123.84,13.97],[123.83,13.89],[123.81,13.94],[123.82,13.98]]],[[[123.65,13.98],[123.68,13.94],[123.63,13.91],[123.6,13.91],[123.6,13.96],[123.62,13.94],[123.64,13.96],[123.66,13.95],[123.65,13.98]]],[[[124.33,13.97],[124.35,13.95],[124.32,13.94],[124.31,13.98],[124.33,13.97]]],[[[123.56,13.99],[123.58,13.99],[123.57,13.93],[123.56,13.99]]],[[[124.21,14.1],[124.27,14.02],[124.29,13.94],[124.31,13.93],[124.31,13.89],[124.35,13.94],[124.36,13.91],[124.39,13.87],[124.4,13.9],[124.41,13.87],[124.4,13.84],[124.43,13.8],[124.39,13.78],[124.41,13.75],[124.39,13.72],[124.42,13.66],[124.34,13.64],[124.35,13.6],[124.33,13.56],[124.35,13.55],[124.32,13.55],[124.3,13.6],[124.21,13.57],[124.21,13.52],[124.11,13.59],[124.05,13.6],[124.06,13.62],[124.02,13.66],[124.1,13.7],[124.14,13.8],[124.13,13.88],[124.15,13.93],[124.13,14.06],[124.17,14.05],[124.21,14.1]]],[[[123.3,14.13],[123.33,14.11],[123.32,14.09],[123.3,14.13]]],[[[122.52,14.34],[122.61,14.31],[122.6,14.3],[122.62,14.29],[122.63,14.32],[122.65,14.28],[122.65,14.31],[122.66,14.29],[122.69,14.28],[122.67,14.34],[122.71,14.34],[122.72,14.31],[122.77,14.32],[122.81,14.28],[122.78,14.25],[122.85,14.28],[123.01,14.11],[122.98,14.08],[123.02,14.11],[123.04,14.1],[123.03,14.03],[123.08,13.98],[123.1,13.89],[123.07,13.87],[123.05,13.78],[123.12,13.73],[123.23,13.73],[123.32,13.8],[123.33,13.79],[123.28,13.9],[123.34,13.97],[123.29,13.93],[123.23,13.99],[123.26,14.01],[123.23,14.03],[123.29,14.03],[123.26,14.07],[123.32,14.03],[123.31,14.07],[123.35,14.07],[123.34,14.11],[123.37,14.04],[123.34,14.01],[123.39,14.04],[123.39,13.99],[123.42,13.98],[123.42,13.89],[123.43,13.93],[123.46,13.93],[123.45,13.97],[123.5,13.94],[123.49,13.91],[123.52,13.93],[123.54,13.91],[123.54,13.93],[123.57,13.9],[123.58,13.91],[123.68,13.88],[123.71,13.88],[123.71,13.94],[123.78,13.85],[123.85,13.81],[123.87,13.83],[123.9,13.8],[123.94,13.8],[123.95,13.75],[123.98,13.74],[123.97,13.71],[123.94,13.74],[123.93,13.72],[123.87,13.74],[123.8,13.69],[123.56,13.74],[123.58,13.72],[123.53,13.58],[123.55,13.55],[123.58,13.55],[123.62,13.49],[123.68,13.48],[123.75,13.32],[123.81,13.29],[123.83,13.24],[123.83,13.27],[123.87,13.24],[123.86,13.22],[123.77,13.23],[123.75,13.17],[123.79,13.11],[123.75,13.09],[123.76,13.06],[123.81,13.05],[123.88,13.14],[123.97,13.11],[124.08,13.0],[124.12,13.07],[124.19,13.07],[124.18,13.02],[124.2,13.02],[124.17,13.0],[124.16,13.02],[124.14,12.93],[124.12,12.91],[124.15,12.9],[124.16,12.81],[124.14,12.67],[124.09,12.64],[124.11,12.59],[124.09,12.58],[124.1,12.57],[124.08,12.54],[123.99,12.54],[123.94,12.63],[123.92,12.62],[123.88,12.66],[123.83,12.83],[123.87,12.84],[123.84,12.84],[123.86,12.88],[123.93,12.84],[123.95,12.88],[124.02,12.88],[124.04,12.92],[124.03,12.97],[123.94,12.96],[123.89,12.98],[123.86,12.9],[123.8,12.86],[123.76,12.89],[123.73,12.84],[123.71,12.88],[123.74,12.88],[123.73,12.9],[123.69,12.9],[123.71,12.88],[123.68,12.88],[123.67,12.91],[123.72,12.93],[123.72,12.95],[123.7,12.93],[123.69,12.96],[123.7,12.93],[123.67,12.93],[123.65,12.87],[123.59,12.9],[123.59,12.94],[123.59,12.9],[123.56,12.95],[123.53,12.94],[123.43,13.04],[123.32,13.01],[123.28,13.06],[123.29,13.15],[123.33,13.2],[123.24,13.29],[123.19,13.43],[122.89,13.58],[122.8,13.65],[122.86,13.69],[122.84,13.73],[122.74,13.78],[122.78,13.79],[122.73,13.82],[122.68,13.83],[122.67,13.81],[122.64,13.84],[122.64,13.88],[122.57,13.91],[122.58,13.93],[122.55,13.92],[122.57,13.93],[122.55,13.95],[122.79,14.01],[122.44,14.15],[122.39,14.07],[122.3,14.07],[122.31,14.1],[122.34,14.12],[122.34,14.09],[122.36,14.12],[122.33,14.2],[122.35,14.18],[122.37,14.2],[122.35,14.23],[122.38,14.22],[122.36,14.25],[122.38,14.29],[122.47,14.34],[122.54,14.31],[122.52,14.34]]],[[[123.0,14.44],[123.02,14.43],[122.98,14.43],[123.0,14.44]]],[[[122.94,14.44],[122.98,14.41],[122.92,14.43],[122.94,14.44]]],[[[122.95,14.49],[122.94,14.45],[122.9,14.45],[122.95,14.49]]]]}},{"type":"Feature","properties":{"region_id":"06","region_name":"Western Visayas","region_short":"Region VI"},"geometry":{"type":"MultiPolygon","coordinates":[[[[122.71,10.47],[122.73,10.45],[122.68,10.44],[122.71,10.47]]],[[[123.45,10.46],[123.42,10.44],[123.45,10.48],[123.45,10.46]]],[[[122.66,10.75],[122.72,10.69],[122.73,10.62],[122.68,10.5],[122.63,10.43],[122.58,10.43],[122.58,10.45],[122.54,10.41],[122.51,10.41],[122.51,10.45],[122.47,10.48],[122.48,10.51],[122.52,10.52],[122.51,10.53],[122.54,10.54],[122.52,10.54],[122.51,10.58],[122.56,10.66],[122.61,10.68],[122.61,10.72],[122.66,10.75]]],[[[123.2,11.0],[123.25,11.0],[123.32,10.95],[123.4,10.96],[123.38,10.93],[123.41,10.95],[123.47,10.92],[123.49,10.94],[123.53,10.84],[123.57,10.84],[123.52,10.81],[123.54,10.82],[123.57,10.79],[123.54,10.75],[123.53,10.76],[123.46,10.52],[123.36,10.44],[123.34,10.38],[123.25,10.41],[123.13,10.41],[123.2,10.27],[123.02,10.01],[122.99,9.91],[122.65,9.5],[122.61,9.42],[122.48,9.56],[122.47,9.62],[122.44,9.62],[122.46,9.66],[122.4,9.67],[122.42,9.7],[122.38,9.71],[122.4,9.82],[122.38,9.84],[122.43,9.9],[122.45,9.98],[122.66,9.98],[122.78,10.07],[122.82,10.06],[122.87,10.1],[122.84,10.23],[122.86,10.37],[122.8,10.52],[122.83,10.55],[122.85,10.51],[122.83,10.55],[122.88,10.56],[122.95,10.68],[122.97,10.79],[122.94,10.85],[122.95,10.89],[123.04,10.92],[123.06,10.91],[123.2,11.0]]],[[[123.15,11.15],[123.12,11.1],[123.11,11.14],[123.15,11.15]]],[[[123.17,11.22],[123.19,11.22],[123.17,11.19],[123.17,11.22]]],[[[123.17,11.31],[123.19,11.29],[123.15,11.25],[123.17,11.31]]],[[[123.26,11.46],[123.28,11.45],[123.25,11.42],[123.26,11.46]]],[[[123.23,11.51],[123.24,11.46],[123.21,11.46],[123.2,11.5],[123.23,11.51]]],[[[123.36,11.64],[123.35,11.61],[123.34,11.63],[123.36,11.64]]],[[[121.43,11.87],[121.53,11.85],[121.51,11.83],[121.41,11.83],[121.43,11.87]]],[[[121.96,11.94],[122.08,11.84],[122.26,11.79],[122.31,11.72],[122.36,11.74],[122.34,11.67],[122.3,11.63],[122.31,11.6],[122.31,11.64],[122.38,11.73],[122.49,11.61],[122.48,11.6],[122.41,11.66],[122.39,11.65],[122.42,11.59],[122.47,11.6],[122.49,11.57],[122.44,11.58],[122.46,11.55],[122.48,11.55],[122.5,11.6],[122.53,11.58],[122.51,11.56],[122.54,11.58],[122.57,11.57],[122.54,11.56],[122.59,11.55],[122.57,11.49],[122.66,11.54],[122.63,11.55],[122.65,11.57],[122.66,11.54],[122.7,11.53],[122.68,11.57],[122.72,11.58],[122.71,11.61],[122.79,11.6],[122.83,11.61],[122.83,11.58],[122.83,11.6],[122.87,11.56],[122.86,11.53],[122.88,11.54],[122.93,11.52],[122.9,11.52],[122.91,11.5],[122.86,11.45],[122.9,11.42],[122.92,11.45],[122.92,11.48],[122.92,11.46],[123.01,11.49],[123.15,11.6],[123.16,11.56],[123.14,11.51],[123.1,11.52],[123.14,11.49],[123.13,11.48],[123.15,11.49],[123.17,11.47],[123.13,11.42],[123.15,11.39],[123.13,11.34],[123.1,11.33],[123.09,11.23],[123.13,11.17],[123.1,11.16],[123.06,11.19],[123.09,11.15],[123.03,11.17],[123.01,11.09],[122.98,11.06],[122.95,11.07],[122.95,11.03],[122.92,11.07],[122.91,11.02],[122.87,11.03],[122.85,10.99],[122.78,10.99],[122.76,10.95],[122.79,10.86],[122.73,10.79],[122.67,10.8],[122.61,10.78],[122.58,10.69],[122.46,10.69],[122.21,10.64],[122.14,10.58],[122.1,10.57],[122.05,10.49],[121.96,10.41],[121.91,10.45],[121.91,10.5],[121.96,10.55],[121.98,10.67],[121.92,10.76],[121.98,10.93],[122.05,11.03],[122.03,11.19],[122.05,11.26],[122.03,11.3],[122.06,11.34],[122.05,11.47],[122.09,11.5],[122.1,11.65],[122.1,11.71],[122.06,11.74],[121.84,11.76],[121.88,11.82],[121.88,11.9],[121.96,11.94]]],[[[121.55,11.96],[121.58,11.91],[121.55,11.89],[121.54,11.95],[121.55,11.96]]],[[[121.92,12.0],[121.94,11.94],[121.91,11.98],[121.92,12.0]]],[[[121.35,12.12],[121.39,12.11],[121.43,12.03],[121.39,11.98],[121.36,12.05],[121.38,12.07],[121.34,12.09],[121.35,12.12]]]]}},{"type":"Feature","properties":{"region_id":"07","region_name":"Central Visayas","region_short":"Region VII"},"geometry":{"type":"MultiPolygon","coordinates":[[[[123.6,9.3],[123.63,9.29],[123.69,9.22],[123.66,9.19],[123.7,9.14],[123.59,9.09],[123.45,9.19],[123.47,9.22],[123.56,9.23],[123.6,9.3]]],[[[123.84,9.64],[123.87,9.63],[123.87,9.6],[123.8,9.55],[123.75,9.55],[123.72,9.59],[123.84,9.64]]],[[[123.78,9.89],[123.79,9.89],[123.77,9.86],[123.76,9.89],[123.78,9.89]]],[[[123.82,9.91],[123.86,9.91],[123.84,9.89],[123.81,9.91],[123.82,9.91]]],[[[124.62,10.15],[124.59,10.11],[124.6,10.09],[124.56,10.09],[124.53,10.05],[124.52,10.12],[124.55,10.11],[124.56,10.13],[124.57,10.11],[124.58,10.14],[124.62,10.15]]],[[[124.29,10.17],[124.34,10.14],[124.34,10.11],[124.37,10.15],[124.4,10.09],[124.39,10.11],[124.42,10.1],[124.48,10.06],[124.5,10.08],[124.55,10.04],[124.57,9.98],[124.55,9.99],[124.55,9.93],[124.54,9.92],[124.58,9.91],[124.56,9.87],[124.51,9.85],[124.6,9.81],[124.59,9.75],[124.52,9.72],[124.48,9.76],[124.41,9.71],[124.4,9.65],[124.26,9.6],[124.19,9.61],[124.06,9.59],[123.85,9.64],[123.84,9.67],[123.87,9.72],[123.84,9.74],[123.79,9.74],[123.81,9.83],[123.79,9.86],[123.81,9.84],[123.88,9.93],[123.89,9.91],[123.96,9.96],[124.03,9.97],[124.06,10.07],[124.1,10.07],[124.15,10.15],[124.28,10.16],[124.29,10.17]]],[[[124.18,10.18],[124.18,10.15],[124.16,10.16],[124.18,10.18]]],[[[124.26,10.21],[124.24,10.18],[124.2,10.19],[124.26,10.21]]],[[[124.17,10.21],[124.18,10.2],[124.15,10.19],[124.17,10.21]]],[[[124.07,10.29],[124.06,10.24],[124.05,10.26],[124.02,10.24],[124.07,10.29]]],[[[123.99,10.33],[124.01,10.31],[124.05,10.33],[123.94,10.24],[123.96,10.27],[123.93,10.28],[123.94,10.31],[123.99,10.33]]],[[[123.25,10.41],[123.34,10.38],[123.33,10.28],[123.23,10.01],[123.15,9.9],[123.13,9.84],[123.16,9.64],[123.12,9.66],[123.11,9.63],[123.16,9.58],[123.15,9.56],[123.14,9.59],[123.12,9.55],[123.15,9.55],[123.18,9.48],[123.23,9.46],[123.31,9.3],[123.28,9.21],[123.2,9.09],[123.13,9.05],[123.13,9.06],[123.07,9.07],[123.02,9.04],[122.94,9.08],[122.88,9.22],[122.86,9.33],[122.67,9.38],[122.61,9.42],[122.65,9.5],[122.99,9.91],[123.02,10.01],[123.2,10.27],[123.13,10.41],[123.25,10.41]]],[[[124.44,10.72],[124.51,10.68],[124.51,10.66],[124.44,10.63],[124.38,10.64],[124.31,10.59],[124.28,10.59],[124.32,10.71],[124.37,10.69],[124.38,10.65],[124.44,10.72]]],[[[124.56,10.81],[124.55,10.76],[124.5,10.73],[124.5,10.76],[124.56,10.81]]],[[[124.06,11.28],[124.04,11.15],[123.98,11.07],[124.0,11.05],[124.04,11.05],[124.03,10.93],[124.05,10.88],[124.0,10.76],[124.04,10.55],[124.0,10.41],[124.02,10.38],[123.98,10.35],[123.98,10.38],[123.97,10.33],[123.88,10.29],[123.86,10.25],[123.77,10.23],[123.69,10.13],[123.68,10.09],[123.64,10.08],[123.61,9.87],[123.54,9.8],[123.47,9.57],[123.35,9.42],[123.3,9.42],[123.34,9.79],[123.4,9.9],[123.37,9.95],[123.37,9.99],[123.38,10.0],[123.4,9.94],[123.41,10.05],[123.52,10.15],[123.58,10.26],[123.58,10.33],[123.67,10.41],[123.71,10.5],[123.7,10.54],[123.74,10.63],[123.88,10.83],[123.93,10.99],[123.9,11.03],[123.93,11.07],[123.93,11.11],[123.97,11.08],[123.94,11.19],[123.99,11.23],[124.0,11.27],[124.06,11.28]]],[[[123.73,11.3],[123.81,11.15],[123.72,11.14],[123.73,11.16],[123.69,11.23],[123.73,11.3]]]]}},{"type":"Feature","properties":{"region_id":"08","region_name":"Eastern Visayas","region_short":"Region VIII"},"geometry":{"type":"MultiPolygon","coordinates":[[[[125.96,10.78],[125.97,10.75],[125.94,10.77],[125.96,10.78]]],[[[125.69,10.82],[125.73,10.8],[125.72,10.75],[125.81,10.73],[125.81,10.7],[125.75,10.69],[125.67,10.74],[125.66,10.79],[125.69,10.82]]],[[[125.65,11.01],[125.64,10.97],[125.62,10.99],[125.65,11.01]]],[[[125.68,11.06],[125.71,11.04],[125.69,11.03],[125.68,11.06]]],[[[124.32,11.56],[124.44,11.44],[124.48,11.34],[124.46,11.45],[124.54,11.43],[124.55,11.34],[124.58,11.31],[124.71,11.31],[124.8,11.38],[124.82,11.43],[124.88,11.41],[124.88,11.44],[124.9,11.4],[124.9,11.42],[124.91,11.41],[124.94,11.43],[124.96,11.39],[124.98,11.4],[124.96,11.28],[125.01,11.25],[125.02,11.21],[125.03,11.24],[125.01,11.15],[125.04,11.07],[125.03,10.93],[125.0,10.84],[125.02,10.74],[125.0,10.73],[125.03,10.74],[125.12,10.7],[125.11,10.66],[125.19,10.58],[125.16,10.53],[125.19,10.47],[125.18,10.43],[125.26,10.37],[125.27,10.3],[125.25,10.26],[125.22,10.25],[125.13,10.28],[125.13,10.16],[125.21,10.13],[125.28,9.99],[125.29,9.91],[125.26,9.91],[125.19,10.04],[125.14,10.06],[125.12,10.18],[125.01,10.38],[124.97,10.37],[124.98,10.21],[125.02,10.09],[125.03,10.01],[124.89,10.12],[124.78,10.13],[124.76,10.16],[124.79,10.32],[124.73,10.38],[124.72,10.48],[124.77,10.54],[124.77,10.62],[124.8,10.66],[124.78,10.78],[124.68,10.94],[124.6,11.01],[124.54,10.98],[124.55,10.93],[124.52,10.87],[124.43,10.89],[124.42,10.95],[124.42,10.91],[124.38,10.92],[124.41,10.98],[124.4,11.03],[124.37,11.06],[124.4,11.11],[124.38,11.2],[124.4,11.24],[124.38,11.27],[124.39,11.3],[124.37,11.29],[124.34,11.31],[124.34,11.36],[124.36,11.37],[124.33,11.38],[124.35,11.41],[124.32,11.41],[124.29,11.49],[124.29,11.54],[124.32,11.56]]],[[[124.89,11.61],[124.91,11.59],[124.89,11.58],[124.89,11.61]]],[[[124.43,11.71],[124.54,11.68],[124.58,11.57],[124.62,11.54],[124.61,11.49],[124.48,11.46],[124.44,11.49],[124.33,11.68],[124.43,11.71]]],[[[124.83,11.69],[124.89,11.68],[124.88,11.62],[124.84,11.63],[124.82,11.71],[124.83,11.69]]],[[[124.73,11.73],[124.76,11.68],[124.78,11.69],[124.77,11.67],[124.81,11.65],[124.8,11.6],[124.85,11.6],[124.82,11.53],[124.79,11.55],[124.81,11.57],[124.77,11.57],[124.76,11.61],[124.79,11.61],[124.72,11.67],[124.71,11.71],[124.73,11.73]]],[[[124.75,11.74],[124.78,11.73],[124.76,11.7],[124.75,11.74]]],[[[124.32,11.81],[124.35,11.8],[124.32,11.76],[124.29,11.79],[124.32,11.81]]],[[[124.45,11.93],[124.47,11.89],[124.42,11.89],[124.45,11.93]]],[[[124.33,11.96],[124.31,11.9],[124.28,11.9],[124.28,11.93],[124.33,11.96]]],[[[124.69,11.98],[124.72,11.96],[124.69,11.96],[124.69,11.98]]],[[[124.42,11.99],[124.43,11.96],[124.4,11.97],[124.42,11.99]]],[[[124.22,12.08],[124.24,12.06],[124.22,12.07],[124.18,12.03],[124.15,12.05],[124.17,12.08],[124.22,12.08]]],[[[124.1,12.29],[124.1,12.26],[124.08,12.28],[124.1,12.29]]],[[[124.28,12.36],[124.25,12.46],[124.28,12.41],[124.28,12.36]]],[[[124.14,12.48],[124.19,12.41],[124.18,12.38],[124.14,12.43],[124.14,12.48]]],[[[124.43,12.58],[124.46,12.55],[124.45,12.54],[124.41,12.56],[124.43,12.58]]],[[[124.49,12.58],[124.52,12.54],[124.47,12.58],[124.49,12.58]]],[[[124.36,12.59],[124.38,12.57],[124.36,12.56],[124.36,12.59]]],[[[124.36,12.63],[124.4,12.58],[124.36,12.59],[124.36,12.63]]],[[[124.99,12.64],[125.02,12.6],[125.07,12.57],[125.03,12.55],[125.07,12.54],[125.07,12.58],[125.11,12.56],[125.15,12.59],[125.27,12.49],[125.26,12.47],[125.29,12.47],[125.3,12.43],[125.34,12.41],[125.3,12.4],[125.32,12.39],[125.29,12.34],[125.32,12.33],[125.29,12.29],[125.33,12.32],[125.34,12.29],[125.32,12.27],[125.34,12.27],[125.36,12.31],[125.38,12.3],[125.37,12.27],[125.44,12.27],[125.46,12.23],[125.51,12.19],[125.51,12.17],[125.46,12.16],[125.47,12.14],[125.42,12.14],[125.44,12.1],[125.48,12.11],[125.47,12.09],[125.52,12.06],[125.43,11.96],[125.44,11.83],[125.47,11.79],[125.41,11.76],[125.44,11.74],[125.46,11.76],[125.47,11.68],[125.49,11.67],[125.45,11.67],[125.46,11.64],[125.44,11.61],[125.47,11.59],[125.47,11.55],[125.52,11.49],[125.49,11.45],[125.52,11.45],[125.56,11.39],[125.63,11.36],[125.61,11.3],[125.55,11.26],[125.53,11.2],[125.6,11.18],[125.62,11.2],[125.6,11.23],[125.67,11.2],[125.75,11.07],[125.76,11.02],[125.67,11.08],[125.7,11.11],[125.67,11.12],[125.66,11.14],[125.58,11.11],[125.58,11.09],[125.57,11.15],[125.53,11.15],[125.51,11.08],[125.46,11.13],[125.45,11.1],[125.44,11.11],[125.41,11.08],[125.3,11.14],[125.25,11.12],[125.23,11.09],[125.21,11.1],[125.15,11.28],[124.98,11.28],[125.0,11.43],[124.9,11.47],[124.91,11.51],[124.89,11.51],[124.89,11.46],[124.84,11.47],[124.82,11.52],[124.86,11.56],[124.89,11.54],[124.88,11.58],[124.95,11.57],[124.99,11.61],[124.98,11.67],[125.04,11.75],[125.0,11.78],[124.91,11.74],[124.89,11.75],[124.86,11.81],[124.77,11.86],[124.8,11.87],[124.78,11.88],[124.8,11.89],[124.79,11.9],[124.83,11.88],[124.81,11.91],[124.74,11.9],[124.77,11.94],[124.71,11.95],[124.74,11.98],[124.7,11.97],[124.69,12.0],[124.72,12.02],[124.69,12.01],[124.6,12.07],[124.54,12.06],[124.48,12.1],[124.39,12.2],[124.34,12.31],[124.34,12.39],[124.33,12.38],[124.32,12.45],[124.28,12.47],[124.26,12.55],[124.29,12.58],[124.33,12.54],[124.36,12.54],[124.36,12.56],[124.39,12.54],[124.39,12.57],[124.42,12.53],[124.44,12.53],[124.43,12.52],[124.47,12.55],[124.46,12.51],[124.47,12.54],[124.57,12.53],[124.65,12.51],[124.65,12.49],[124.66,12.52],[124.87,12.53],[124.88,12.56],[124.86,12.58],[124.9,12.56],[124.96,12.58],[124.95,12.56],[124.99,12.55],[125.01,12.57],[124.99,12.64]]],[[[125.0,12.66],[125.01,12.64],[124.99,12.65],[125.0,12.66]]],[[[125.07,12.68],[125.09,12.6],[125.03,12.62],[125.06,12.64],[125.03,12.67],[125.07,12.68]]],[[[124.36,12.69],[124.39,12.68],[124.39,12.64],[124.36,12.66],[124.36,12.69]]]]}},{"type":"Feature","properties":{"region_id":"09","region_name":"Zamboanga Peninsula","region_short":"Region IX"},"geometry":{"type":"MultiPolygon","coordinates":[[[[122.28,6.99],[122.27,6.96],[122.23,6.96],[122.2,6.92],[122.22,6.99],[122.28,6.99]]],[[[122.9,7.44],[122.97,7.36],[122.92,7.37],[122.95,7.34],[122.92,7.35],[122.83,7.28],[122.79,7.35],[122.8,7.42],[122.84,7.43],[122.88,7.37],[122.9,7.44]]],[[[122.78,7.77],[122.78,7.75],[122.76,7.75],[122.78,7.77]]],[[[123.39,8.73],[123.44,8.72],[123.45,8.68],[123.5,8.7],[123.49,8.64],[123.55,8.62],[123.56,8.05],[123.64,8.03],[123.63,8.01],[123.65,8.02],[123.66,8.0],[123.6,7.99],[123.64,7.99],[123.63,7.97],[123.67,7.95],[123.62,7.83],[123.57,7.85],[123.42,7.82],[123.42,7.77],[123.48,7.73],[123.48,7.67],[123.46,7.63],[123.38,7.61],[123.39,7.56],[123.36,7.58],[123.34,7.55],[123.38,7.54],[123.4,7.46],[123.45,7.44],[123.45,7.37],[123.41,7.36],[123.33,7.42],[123.28,7.47],[123.3,7.53],[123.22,7.54],[123.18,7.5],[123.2,7.49],[123.18,7.47],[123.17,7.49],[123.12,7.51],[123.1,7.56],[123.13,7.58],[123.1,7.6],[123.12,7.6],[123.14,7.58],[123.2,7.59],[123.18,7.64],[123.13,7.66],[123.15,7.69],[123.12,7.73],[123.08,7.68],[123.04,7.66],[123.06,7.63],[123.03,7.63],[123.04,7.58],[122.99,7.46],[122.9,7.54],[122.86,7.5],[122.88,7.46],[122.81,7.43],[122.82,7.48],[122.78,7.47],[122.78,7.49],[122.79,7.54],[122.83,7.53],[122.79,7.59],[122.81,7.62],[122.79,7.62],[122.78,7.67],[122.81,7.7],[122.8,7.73],[122.82,7.71],[122.81,7.74],[122.75,7.78],[122.77,7.76],[122.75,7.75],[122.72,7.78],[122.67,7.77],[122.66,7.79],[122.54,7.74],[122.48,7.65],[122.49,7.63],[122.43,7.59],[122.45,7.57],[122.51,7.58],[122.46,7.51],[122.43,7.5],[122.47,7.54],[122.45,7.55],[122.42,7.5],[122.35,7.47],[122.34,7.4],[122.39,7.39],[122.34,7.31],[122.31,7.32],[122.33,7.36],[122.29,7.32],[122.28,7.23],[122.25,7.21],[122.27,7.19],[122.25,7.19],[122.26,7.16],[122.24,7.13],[122.26,7.11],[122.2,7.07],[122.19,6.95],[122.14,6.93],[122.16,6.92],[122.11,6.89],[121.95,6.96],[121.9,7.08],[121.9,7.15],[121.97,7.25],[122.06,7.29],[122.03,7.36],[122.09,7.5],[122.07,7.52],[122.1,7.53],[122.14,7.57],[122.11,7.6],[122.13,7.67],[122.12,7.72],[122.09,7.74],[122.12,7.76],[122.1,7.79],[122.12,7.78],[122.16,7.86],[122.23,7.91],[122.22,7.96],[122.35,8.04],[122.58,8.08],[122.66,8.16],[122.69,8.12],[122.72,8.11],[122.91,8.15],[123.0,8.21],[122.99,8.25],[122.94,8.31],[122.98,8.33],[122.98,8.41],[123.01,8.43],[123.03,8.49],[123.06,8.52],[123.18,8.53],[123.3,8.52],[123.35,8.64],[123.41,8.63],[123.4,8.7],[123.39,8.68],[123.38,8.7],[123.39,8.73]]]]}},{"type":"Feature","properties":{"region_id":"10","region_name":"Northern Mindanao","region_short":"Region X"},"geometry":{"type":"MultiPolygon","coordinates":[[[[123.61,8.67],[123.63,8.63],[123.69,8.64],[123.74,8.59],[123.73,8.61],[123.76,8.6],[123.74,8.58],[123.82,8.48],[123.86,8.32],[123.85,8.28],[123.87,8.16],[123.79,8.1],[123.76,8.05],[123.69,8.05],[123.64,8.01],[123.64,8.03],[123.56,8.05],[123.55,8.2],[123.55,8.62],[123.57,8.57],[123.6,8.65],[123.58,8.66],[123.61,8.67]]],[[[125.22,9.02],[125.24,8.96],[125.22,8.92],[125.26,8.87],[125.23,8.86],[125.26,8.38],[125.36,8.24],[125.35,8.19],[125.39,8.08],[125.38,8.02],[125.42,7.91],[125.42,7.82],[125.44,7.76],[125.41,7.63],[125.25,7.64],[125.25,7.58],[125.22,7.59],[125.22,7.57],[125.19,7.57],[125.16,7.47],[125.07,7.45],[125.03,7.4],[124.97,7.4],[124.93,7.43],[124.88,7.42],[124.83,7.49],[124.79,7.48],[124.83,7.54],[124.82,7.59],[124.75,7.65],[124.73,7.73],[124.66,7.84],[124.63,7.85],[124.56,7.98],[124.52,8.12],[124.33,8.21],[124.3,8.21],[124.28,8.09],[124.25,8.05],[124.21,8.02],[124.13,8.0],[124.14,7.97],[124.11,7.9],[124.02,7.9],[124.05,7.83],[124.0,7.69],[123.84,7.74],[123.82,7.7],[123.77,7.7],[123.76,7.73],[123.74,7.73],[123.72,7.79],[123.62,7.83],[123.67,7.95],[123.75,8.0],[123.85,8.11],[123.9,8.11],[124.02,8.2],[124.15,8.19],[124.23,8.22],[124.26,8.28],[124.25,8.33],[124.28,8.4],[124.31,8.54],[124.39,8.59],[124.46,8.62],[124.47,8.59],[124.58,8.52],[124.65,8.51],[124.64,8.49],[124.66,8.51],[124.7,8.47],[124.75,8.5],[124.74,8.56],[124.77,8.59],[124.74,8.69],[124.78,8.72],[124.76,8.76],[124.79,8.89],[124.77,8.97],[124.8,9.0],[124.9,9.0],[125.02,8.92],[125.09,8.83],[125.17,8.85],[125.19,8.93],[125.17,9.01],[125.21,9.09],[125.22,9.02]]],[[[124.71,9.26],[124.78,9.2],[124.81,9.12],[124.78,9.08],[124.68,9.12],[124.64,9.17],[124.64,9.23],[124.71,9.26]]]]}},{"type":"Feature","properties":{"region_id":"11","region_name":"Davao Region","region_short":"Region XI"},"geometry":{"type":"MultiPolygon","coordinates":[[[[125.4,5.44],[125.43,5.42],[125.42,5.37],[125.35,5.37],[125.33,5.39],[125.4,5.44]]],[[[125.48,5.5],[125.5,5.47],[125.47,5.39],[125.45,5.44],[125.47,5.46],[125.46,5.47],[125.48,5.47],[125.48,5.5]]],[[[125.68,6.96],[125.72,6.94],[125.71,6.9],[125.67,6.95],[125.68,6.96]]],[[[125.71,7.2],[125.8,7.12],[125.78,7.03],[125.79,6.94],[125.77,6.89],[125.72,6.96],[125.71,7.07],[125.68,7.06],[125.66,7.1],[125.71,7.2]]],[[[126.35,8.0],[126.38,7.83],[126.43,7.83],[126.46,7.76],[126.46,7.79],[126.5,7.74],[126.57,7.72],[126.55,7.64],[126.58,7.61],[126.56,7.58],[126.58,7.57],[126.6,7.48],[126.6,7.45],[126.55,7.43],[126.55,7.4],[126.58,7.4],[126.55,7.31],[126.57,7.29],[126.61,7.29],[126.56,7.2],[126.53,7.21],[126.52,7.12],[126.47,7.09],[126.45,7.02],[126.46,6.99],[126.34,7.01],[126.31,6.94],[126.28,6.93],[126.35,6.86],[126.35,6.8],[126.29,6.82],[126.3,6.86],[126.26,6.93],[126.26,6.91],[126.2,6.95],[126.18,6.9],[126.19,6.88],[126.16,6.91],[126.26,6.75],[126.22,6.63],[126.23,6.43],[126.2,6.39],[126.21,6.29],[126.19,6.27],[126.19,6.34],[126.14,6.39],[126.15,6.42],[126.08,6.53],[126.09,6.6],[126.07,6.66],[126.1,6.74],[126.08,6.76],[126.08,6.85],[125.98,6.93],[125.99,7.01],[125.88,7.13],[125.89,7.17],[125.84,7.25],[125.86,7.35],[125.81,7.37],[125.65,7.25],[125.65,7.1],[125.58,7.02],[125.56,7.05],[125.52,7.03],[125.49,6.98],[125.49,6.92],[125.39,6.8],[125.38,6.81],[125.39,6.79],[125.37,6.73],[125.39,6.63],[125.36,6.6],[125.38,6.62],[125.44,6.58],[125.43,6.63],[125.52,6.56],[125.52,6.52],[125.55,6.54],[125.58,6.52],[125.57,6.5],[125.59,6.5],[125.58,6.43],[125.62,6.41],[125.7,6.21],[125.72,6.1],[125.66,5.92],[125.51,5.75],[125.41,5.57],[125.33,5.56],[125.31,5.59],[125.39,5.65],[125.49,5.85],[125.48,5.91],[125.54,6.11],[125.51,6.14],[125.5,6.23],[125.45,6.32],[125.26,6.33],[125.18,6.4],[125.17,6.45],[125.2,6.51],[125.19,6.59],[125.13,6.68],[125.13,6.72],[125.15,6.73],[125.1,6.82],[125.14,6.82],[125.16,6.88],[125.25,6.96],[125.28,7.02],[125.31,7.02],[125.28,7.12],[125.23,7.18],[125.25,7.25],[125.23,7.34],[125.26,7.5],[125.25,7.64],[125.4,7.62],[125.43,7.66],[125.44,7.76],[125.42,7.82],[125.42,7.91],[125.38,7.99],[125.98,8.0],[126.05,7.94],[126.15,8.0],[126.35,8.0]]]]}},{"type":"Feature","properties":{"region_id":"12","region_name":"SOCCSKSARGEN","region_short":"Region XII"},"geometry":{"type":"Polygon","coordinates":[[[124.54,7.68],[124.61,7.62],[124.65,7.61],[124.7,7.64],[124.8,7.61],[124.83,7.54],[124.79,7.48],[124.82,7.5],[124.88,7.42],[124.93,7.43],[124.97,7.4],[125.05,7.41],[125.07,7.45],[125.16,7.47],[125.19,7.57],[125.22,7.57],[125.22,7.59],[125.25,7.58],[125.26,7.5],[125.23,7.34],[125.25,7.25],[125.23,7.19],[125.28,7.12],[125.31,7.02],[125.28,7.02],[125.25,6.96],[125.16,6.88],[125.14,6.82],[125.1,6.82],[125.15,6.73],[125.13,6.72],[125.13,6.68],[125.19,6.59],[125.2,6.51],[125.17,6.45],[125.18,6.4],[125.26,6.33],[125.45,6.32],[125.5,6.23],[125.51,6.14],[125.54,6.11],[125.48,5.91],[125.49,5.85],[125.39,5.65],[125.31,5.59],[125.32,5.57],[125.29,5.58],[125.31,5.63],[125.29,5.69],[125.24,5.72],[125.21,5.77],[125.18,5.77],[125.17,5.81],[125.18,5.84],[125.21,5.83],[125.21,5.89],[125.27,5.92],[125.29,5.99],[125.27,6.09],[125.16,6.1],[125.08,5.86],[124.92,5.86],[124.6,5.99],[124.58,6.01],[124.52,6.02],[124.42,6.09],[124.25,6.16],[124.18,6.21],[124.17,6.27],[124.11,6.32],[124.08,6.39],[124.06,6.38],[124.04,6.42],[124.02,6.53],[124.06,6.54],[124.04,6.55],[124.05,6.63],[124.02,6.72],[124.04,6.75],[124.27,6.75],[124.28,6.72],[124.51,6.72],[124.58,6.8],[124.56,6.86],[124.66,6.88],[124.7,6.87],[124.67,6.78],[124.75,6.78],[124.8,6.65],[124.89,6.66],[125.0,6.72],[124.9,6.78],[124.81,6.78],[124.81,7.0],[124.79,7.01],[124.79,7.06],[124.82,7.06],[124.82,7.08],[124.79,7.08],[124.79,7.11],[124.71,7.19],[124.69,7.15],[124.74,7.1],[124.73,7.1],[124.73,7.08],[124.71,7.1],[124.7,7.07],[124.68,7.08],[124.72,7.0],[124.68,6.95],[124.59,6.97],[124.53,7.04],[124.5,7.03],[124.43,7.09],[124.51,7.23],[124.41,7.23],[124.37,7.17],[124.33,7.17],[124.41,7.3],[124.42,7.3],[124.49,7.44],[124.43,7.52],[124.44,7.65],[124.54,7.68]]]}},{"type":"Feature","properties":{"region_id":"13","region_name":"National Capital Region","region_short":"NCR"},"geometry":{"type":"MultiPolygon","coordinates":[[[[121.06,14.78],[121.13,14.74],[121.1,14.68],[121.13,14.66],[121.1,14.63],[121.11,14.53],[121.06,14.49],[121.06,14.38],[121.01,14.35],[121.01,14.38],[120.96,14.47],[120.99,14.5],[120.99,14.56],[120.96,14.59],[120.95,14.58],[120.96,14.6],[121.01,14.59],[120.94,14.59],[120.96,14.64],[120.92,14.69],[120.96,14.69],[120.94,14.73],[120.99,14.71],[121.06,14.78]]]]}},{"type":"Feature","properties":{"region_id":"14","region_name":"Cordillera Administrative Region","region_short":"CAR"},"geometry":{"type":"Polygon","coordinates":[[[121.38,17.95],[121.31,17.82],[121.36,17.81],[121.43,17.74],[121.44,17.67],[121.47,17.68],[121.51,17.65],[121.67,17.49],[121.67,17.44],[121.6,17.4],[121.55,17.28],[121.56,17.05],[121.59,16.9],[121.54,16.85],[121.44,16.84],[121.34,16.78],[121.29,16.66],[120.91,16.6],[120.89,16.43],[120.85,16.32],[120.81,16.32],[120.76,16.24],[120.77,16.2],[120.66,16.19],[120.51,16.24],[120.47,16.5],[120.56,16.6],[120.54,16.61],[120.61,16.69],[120.64,16.9],[120.78,16.93],[120.78,17.11],[120.86,17.19],[120.8,17.19],[120.76,17.16],[120.69,17.16],[120.67,17.19],[120.68,17.26],[120.61,17.31],[120.56,17.31],[120.54,17.35],[120.59,17.48],[120.53,17.5],[120.48,17.48],[120.47,17.51],[120.58,17.8],[120.69,17.83],[120.73,17.89],[120.83,17.96],[120.93,17.96],[120.94,18.1],[120.98,18.17],[120.95,18.4],[120.96,18.45],[121.06,18.54],[121.09,18.54],[121.09,18.49],[121.25,18.43],[121.29,18.39],[121.47,18.31],[121.49,18.23],[121.46,18.05],[121.42,18.03],[121.38,17.95]]]}},{"type":"Feature","properties":{"region_id":"16","region_name":"Caraga","region_short":"Region XVI"},"geometry":{"type":"MultiPolygon","coordinates":[[[[126.01,9.43],[126.01,9.4],[125.99,9.41],[126.01,9.43]]],[[[125.63,9.73],[125.66,9.72],[125.66,9.66],[125.64,9.71],[125.62,9.7],[125.63,9.73]]],[[[126.03,9.73],[126.07,9.73],[126.07,9.71],[125.97,9.69],[125.98,9.74],[126.01,9.71],[126.03,9.73]]],[[[125.59,9.73],[125.61,9.72],[125.6,9.7],[125.59,9.73]]],[[[125.6,9.75],[125.62,9.74],[125.59,9.73],[125.6,9.75]]],[[[125.94,9.76],[125.99,9.66],[125.96,9.57],[125.94,9.56],[125.9,9.6],[125.93,9.6],[125.89,9.61],[125.93,9.65],[125.91,9.76],[125.94,9.76]]],[[[125.64,9.79],[125.67,9.75],[125.62,9.77],[125.64,9.79]]],[[[125.72,9.79],[125.74,9.78],[125.73,9.75],[125.7,9.76],[125.71,9.81],[125.72,9.79]]],[[[125.45,9.82],[125.45,9.79],[125.5,9.79],[125.5,9.77],[125.56,9.78],[125.55,9.77],[125.58,9.76],[125.61,9.63],[125.68,9.6],[125.67,9.59],[125.74,9.59],[125.77,9.55],[125.86,9.53],[125.88,9.5],[125.92,9.5],[125.94,9.45],[125.94,9.47],[125.96,9.48],[125.95,9.44],[125.92,9.44],[125.89,9.41],[125.95,9.36],[125.99,9.4],[125.97,9.33],[125.99,9.34],[126.01,9.27],[126.05,9.23],[126.12,9.26],[126.17,9.31],[126.21,9.31],[126.16,9.1],[126.19,9.07],[126.2,9.09],[126.24,9.02],[126.2,9.03],[126.2,9.01],[126.21,9.03],[126.26,8.99],[126.24,9.01],[126.31,8.96],[126.29,8.93],[126.33,8.92],[126.31,8.88],[126.34,8.84],[126.32,8.84],[126.3,8.78],[126.21,8.73],[126.21,8.71],[126.24,8.69],[126.19,8.7],[126.11,8.65],[126.08,8.61],[126.13,8.58],[126.11,8.57],[126.15,8.53],[126.22,8.52],[126.19,8.55],[126.21,8.56],[126.29,8.53],[126.35,8.55],[126.35,8.52],[126.39,8.52],[126.4,8.47],[126.36,8.47],[126.35,8.43],[126.38,8.41],[126.32,8.36],[126.34,8.33],[126.31,8.33],[126.39,8.29],[126.32,8.23],[126.34,8.18],[126.46,8.24],[126.43,8.11],[126.45,8.1],[126.41,8.01],[126.42,7.98],[126.45,7.99],[126.39,7.95],[126.36,7.91],[126.35,8.0],[126.15,8.0],[126.05,7.94],[125.98,8.0],[125.38,7.99],[125.36,8.24],[125.26,8.38],[125.23,8.86],[125.26,8.87],[125.22,8.92],[125.24,8.96],[125.21,9.09],[125.24,9.03],[125.28,8.99],[125.33,8.99],[125.33,8.97],[125.35,8.99],[125.43,8.98],[125.53,9.03],[125.51,9.03],[125.54,9.07],[125.53,9.19],[125.39,9.66],[125.4,9.77],[125.45,9.82]]],[[[125.95,9.89],[125.97,9.87],[125.95,9.85],[125.92,9.87],[125.95,9.89]]],[[[125.61,9.91],[125.58,9.85],[125.58,9.89],[125.56,9.89],[125.61,9.91]]],[[[125.64,9.92],[125.64,9.86],[125.69,9.85],[125.59,9.8],[125.58,9.84],[125.64,9.92]]],[[[125.52,9.91],[125.55,9.86],[125.51,9.89],[125.52,9.91]]],[[[125.97,9.96],[125.97,9.92],[125.91,9.88],[125.97,9.94],[125.97,9.96]]],[[[125.51,10.03],[125.54,10.01],[125.51,10.0],[125.51,10.03]]],[[[126.06,10.06],[126.12,9.88],[126.08,9.84],[126.14,9.85],[126.15,9.81],[126.17,9.81],[126.11,9.75],[126.03,9.77],[126.03,9.75],[125.97,9.81],[125.99,9.82],[125.95,9.83],[125.99,9.86],[125.96,9.88],[125.97,9.92],[126.06,10.06]]],[[[125.47,10.46],[125.5,10.45],[125.5,10.42],[125.48,10.43],[125.47,10.46]]],[[[125.64,10.47],[125.68,10.39],[125.65,10.31],[125.65,10.25],[125.61,10.27],[125.66,10.2],[125.59,10.14],[125.63,10.18],[125.68,10.17],[125.66,10.12],[125.7,10.06],[125.68,9.96],[125.66,9.95],[125.71,9.89],[125.67,9.85],[125.64,9.94],[125.59,9.95],[125.62,9.96],[125.59,9.98],[125.61,9.99],[125.58,9.98],[125.56,9.99],[125.59,10.03],[125.58,10.04],[125.6,10.04],[125.59,10.08],[125.51,10.06],[125.47,10.13],[125.5,10.13],[125.5,10.18],[125.53,10.18],[125.5,10.21],[125.54,10.2],[125.51,10.24],[125.54,10.28],[125.51,10.32],[125.56,10.32],[125.55,10.38],[125.6,10.37],[125.61,10.44],[125.64,10.47]]]]}},{"type":"Feature","properties":{"region_id":"17","region_name":"MIMAROPA","region_short":"Region IV-B"},"geometry":{"type":"MultiPolygon","coordinates":[[[[117.07,8.08],[117.08,8.0],[117.05,7.99],[117.08,7.99],[117.09,7.91],[117.06,7.84],[117.01,7.8],[116.93,7.94],[116.97,7.95],[116.95,8.0],[116.97,8.05],[116.97,8.02],[117.0,8.04],[117.0,8.06],[117.07,8.08]]],[[[117.03,8.13],[117.06,8.08],[117.02,8.07],[116.99,8.1],[117.03,8.13]]],[[[117.14,8.18],[117.19,8.18],[117.21,8.15],[117.15,8.15],[117.14,8.18]]],[[[117.09,8.25],[117.13,8.22],[117.08,8.22],[117.09,8.25]]],[[[117.32,8.32],[117.35,8.29],[117.35,8.21],[117.29,8.18],[117.26,8.21],[117.27,8.3],[117.32,8.32]]],[[[117.23,8.31],[117.26,8.31],[117.26,8.29],[117.18,8.26],[117.16,8.29],[117.23,8.34],[117.23,8.31]]],[[[118.44,9.25],[118.46,9.22],[118.43,9.21],[118.44,9.25]]],[[[121.27,9.61],[121.24,9.59],[121.28,9.62],[121.27,9.61]]],[[[121.23,9.65],[121.23,9.59],[121.18,9.57],[121.23,9.65]]],[[[119.07,10.51],[119.08,10.49],[119.05,10.49],[119.07,10.51]]],[[[119.16,10.59],[119.2,10.57],[119.12,10.55],[119.14,10.57],[119.12,10.59],[119.16,10.59]]],[[[119.83,10.65],[119.9,10.6],[119.98,10.6],[120.0,10.56],[119.99,10.55],[119.98,10.57],[119.98,10.53],[119.95,10.52],[119.94,10.54],[119.93,10.5],[119.89,10.55],[119.92,10.48],[119.86,10.48],[119.87,10.46],[119.8,10.44],[119.76,10.46],[119.76,10.53],[119.75,10.52],[119.74,10.55],[119.76,10.57],[119.79,10.55],[119.83,10.61],[119.83,10.65]]],[[[120.98,10.83],[120.99,10.81],[120.96,10.82],[120.98,10.83]]],[[[119.64,10.83],[119.63,10.8],[119.62,10.82],[119.64,10.83]]],[[[121.07,10.91],[121.07,10.81],[121.02,10.8],[121.0,10.86],[121.07,10.91]]],[[[120.95,11.0],[120.97,10.98],[120.95,10.97],[120.95,11.0]]],[[[119.29,11.02],[119.29,10.95],[119.26,10.98],[119.27,11.02],[119.29,11.02]]],[[[119.71,11.06],[119.72,11.03],[119.7,11.03],[119.71,11.06]]],[[[119.58,11.1],[119.62,11.09],[119.63,10.99],[119.63,11.02],[119.61,11.01],[119.6,11.03],[119.56,11.04],[119.58,11.1]]],[[[119.69,11.12],[119.7,11.09],[119.68,11.08],[119.67,11.12],[119.69,11.12]]],[[[120.98,11.17],[120.99,11.15],[120.95,11.14],[120.94,11.15],[120.98,11.17]]],[[[119.61,11.19],[119.63,11.19],[119.63,11.16],[119.56,11.14],[119.56,11.17],[119.61,11.19]]],[[[119.55,11.17],[119.51,11.14],[119.55,11.2],[119.55,11.17]]],[[[119.35,11.24],[119.38,11.19],[119.34,11.21],[119.35,11.24]]],[[[119.71,11.26],[119.73,11.25],[119.7,11.23],[119.71,11.26]]],[[[120.7,11.31],[120.69,11.29],[120.67,11.31],[120.7,11.31]]],[[[119.69,11.32],[119.68,11.26],[119.66,11.3],[119.69,11.32]]],[[[119.48,11.42],[119.51,11.42],[119.51,11.33],[119.54,11.32],[119.55,11.34],[119.57,11.29],[119.54,11.17],[119.5,11.13],[119.54,11.07],[119.56,11.08],[119.57,11.01],[119.5,11.01],[119.48,10.87],[119.53,10.81],[119.57,10.84],[119.6,10.82],[119.58,10.78],[119.6,10.72],[119.57,10.66],[119.61,10.66],[119.64,10.69],[119.66,10.67],[119.67,10.66],[119.62,10.66],[119.63,10.62],[119.72,10.51],[119.59,10.42],[119.57,10.37],[119.46,10.38],[119.32,10.31],[119.24,10.2],[119.2,10.05],[118.97,9.98],[118.9,9.99],[118.82,9.94],[118.77,9.94],[118.76,9.91],[118.75,9.93],[118.74,9.84],[118.77,9.8],[118.77,9.72],[118.73,9.73],[118.72,9.79],[118.69,9.76],[118.69,9.71],[118.73,9.71],[118.71,9.68],[118.73,9.7],[118.76,9.67],[118.72,9.65],[118.73,9.64],[118.65,9.55],[118.64,9.51],[118.55,9.43],[118.54,9.36],[118.49,9.29],[118.43,9.28],[118.34,9.18],[118.12,9.14],[118.1,9.05],[118.07,9.05],[118.08,9.01],[118.06,9.01],[118.0,8.88],[117.89,8.83],[117.74,8.69],[117.62,8.66],[117.57,8.67],[117.54,8.64],[117.55,8.6],[117.5,8.5],[117.46,8.52],[117.44,8.5],[117.42,8.51],[117.43,8.49],[117.37,8.49],[117.21,8.36],[117.21,8.33],[117.18,8.33],[117.22,8.52],[117.27,8.58],[117.25,8.61],[117.27,8.6],[117.3,8.66],[117.33,8.67],[117.34,8.7],[117.32,8.7],[117.36,8.74],[117.42,8.76],[117.42,8.79],[117.46,8.81],[117.47,8.86],[117.55,8.96],[117.62,9.0],[117.63,9.05],[117.69,9.09],[117.7,9.06],[117.75,9.07],[117.78,9.16],[117.81,9.2],[117.86,9.21],[117.91,9.26],[117.95,9.25],[117.98,9.28],[117.98,9.24],[118.02,9.24],[118.09,9.33],[118.13,9.34],[118.13,9.4],[118.19,9.41],[118.2,9.47],[118.33,9.58],[118.34,9.65],[118.41,9.66],[118.42,9.7],[118.51,9.76],[118.61,9.87],[118.6,9.91],[118.64,9.93],[118.66,9.98],[118.64,10.0],[118.72,10.04],[118.76,10.13],[118.77,10.07],[118.74,10.08],[118.78,10.06],[118.78,10.02],[118.81,10.03],[118.84,10.11],[118.81,10.12],[118.81,10.19],[118.94,10.21],[118.94,10.26],[118.96,10.27],[118.93,10.29],[118.97,10.28],[118.97,10.31],[119.0,10.31],[119.01,10.34],[119.03,10.34],[119.02,10.38],[118.97,10.35],[118.99,10.41],[119.02,10.42],[119.06,10.39],[119.06,10.42],[119.1,10.43],[119.07,10.45],[119.08,10.48],[119.11,10.49],[119.11,10.41],[119.14,10.38],[119.22,10.48],[119.26,10.48],[119.27,10.51],[119.23,10.55],[119.27,10.54],[119.32,10.59],[119.34,10.74],[119.31,10.77],[119.27,10.76],[119.26,10.83],[119.21,10.85],[119.25,10.86],[119.22,10.88],[119.26,10.88],[119.21,10.91],[119.22,10.95],[119.24,10.95],[119.24,10.91],[119.27,10.95],[119.28,10.94],[119.28,10.89],[119.3,10.89],[119.27,10.87],[119.31,10.87],[119.28,10.85],[119.31,10.83],[119.32,10.85],[119.33,10.81],[119.36,10.82],[119.35,10.8],[119.39,10.79],[119.4,10.76],[119.42,10.77],[119.43,10.72],[119.46,10.72],[119.43,10.8],[119.45,10.84],[119.41,10.87],[119.35,10.87],[119.33,10.89],[119.36,10.94],[119.31,10.94],[119.33,10.95],[119.3,11.01],[119.32,11.03],[119.34,10.99],[119.37,11.01],[119.33,11.04],[119.34,11.06],[119.32,11.06],[119.33,11.11],[119.37,11.04],[119.42,11.04],[119.43,11.14],[119.4,11.13],[119.38,11.18],[119.42,11.21],[119.41,11.31],[119.47,11.36],[119.48,11.42]]],[[[119.64,11.43],[119.67,11.42],[119.66,11.39],[119.64,11.43]]],[[[120.83,11.45],[120.85,11.43],[120.83,11.42],[120.83,11.45]]],[[[120.19,11.46],[120.2,11.45],[120.15,11.43],[120.19,11.46]]],[[[119.81,11.52],[119.87,11.49],[119.82,11.38],[119.8,11.4],[119.82,11.43],[119.79,11.43],[119.77,11.39],[119.71,11.46],[119.73,11.48],[119.77,11.44],[119.78,11.49],[119.8,11.45],[119.81,11.47],[119.83,11.46],[119.82,11.48],[119.85,11.49],[119.81,11.52]]],[[[120.14,11.78],[120.18,11.75],[120.14,11.75],[120.14,11.78]]],[[[120.08,11.84],[120.1,11.85],[120.11,11.81],[120.08,11.84]]],[[[120.05,11.93],[120.07,11.92],[120.03,11.93],[120.05,11.93]]],[[[119.99,11.97],[120.02,11.96],[120.01,11.94],[119.98,11.96],[119.99,11.97]]],[[[119.91,11.98],[119.97,11.95],[119.94,11.94],[119.94,11.91],[120.02,11.93],[119.99,11.9],[120.07,11.86],[120.02,11.84],[120.05,11.84],[120.03,11.81],[120.07,11.79],[120.04,11.76],[120.06,11.76],[120.05,11.72],[119.98,11.67],[119.96,11.69],[119.96,11.66],[119.94,11.73],[119.98,11.71],[119.95,11.74],[120.0,11.79],[119.96,11.8],[119.96,11.76],[119.93,11.76],[119.91,11.79],[119.89,11.83],[119.91,11.84],[119.85,11.95],[119.89,11.92],[119.87,11.97],[119.91,11.98]]],[[[119.94,11.98],[119.97,11.96],[119.94,11.96],[119.94,11.98]]],[[[119.87,11.98],[119.82,11.94],[119.85,11.98],[119.87,11.98]]],[[[120.25,11.98],[120.28,11.94],[120.25,11.91],[120.29,11.91],[120.29,11.88],[120.26,11.88],[120.29,11.86],[120.25,11.85],[120.26,11.81],[120.19,11.94],[120.25,11.98]]],[[[120.14,11.99],[120.2,11.98],[120.14,11.97],[120.14,11.99]]],[[[121.94,12.1],[121.96,12.07],[121.95,12.03],[121.91,12.06],[121.94,12.1]]],[[[119.91,12.14],[119.87,12.14],[119.9,12.17],[119.91,12.14]]],[[[121.01,12.24],[121.04,12.2],[121.01,12.2],[121.01,12.24]]],[[[121.07,12.3],[121.1,12.23],[121.1,12.19],[121.11,12.2],[121.14,12.17],[121.12,12.15],[121.04,12.23],[121.04,12.29],[121.07,12.3]]],[[[119.9,12.33],[119.93,12.32],[119.93,12.27],[120.01,12.25],[120.06,12.19],[120.1,12.2],[120.09,12.17],[120.16,12.12],[120.21,12.13],[120.22,12.23],[120.22,12.2],[120.24,12.2],[120.25,12.13],[120.28,12.14],[120.33,12.09],[120.34,12.06],[120.31,12.03],[120.32,12.04],[120.34,11.99],[120.3,11.98],[120.25,12.01],[120.22,11.98],[120.17,12.03],[120.13,12.03],[120.13,11.99],[120.1,12.0],[120.12,11.98],[120.1,11.96],[120.05,12.02],[120.02,11.99],[119.98,12.01],[120.0,12.02],[119.94,12.07],[119.9,12.2],[119.85,12.15],[119.88,12.22],[119.86,12.25],[119.92,12.27],[119.87,12.27],[119.86,12.31],[119.9,12.33]]],[[[122.55,12.51],[122.66,12.48],[122.7,12.4],[122.68,12.33],[122.64,12.27],[122.56,12.31],[122.54,12.36],[122.45,12.4],[122.42,12.43],[122.46,12.49],[122.55,12.51]]],[[[122.28,12.63],[122.33,12.54],[122.3,12.48],[122.25,12.53],[122.24,12.57],[122.27,12.58],[122.28,12.63]]],[[[122.12,12.67],[122.16,12.63],[122.12,12.62],[122.14,12.54],[122.11,12.5],[122.09,12.31],[122.04,12.23],[122.04,12.19],[122.07,12.18],[122.03,12.16],[122.02,12.1],[121.96,12.19],[121.97,12.24],[121.99,12.19],[122.02,12.23],[121.97,12.26],[121.94,12.3],[121.93,12.29],[121.92,12.32],[121.94,12.39],[121.99,12.41],[122.01,12.44],[122.0,12.6],[122.08,12.62],[122.12,12.67]]],[[[122.09,12.84],[122.06,12.78],[122.02,12.8],[122.09,12.84]]],[[[121.7,12.95],[121.74,12.93],[121.72,12.89],[121.68,12.93],[121.7,12.95]]],[[[122.08,12.96],[122.1,12.96],[122.09,12.92],[122.06,12.91],[122.03,12.95],[122.08,12.96]]],[[[122.15,13.41],[122.13,13.4],[122.12,13.43],[122.15,13.41]]],[[[122.1,13.5],[122.07,13.5],[122.07,13.53],[122.1,13.5]]],[[[120.43,13.53],[120.75,13.46],[120.99,13.52],[120.96,13.49],[121.04,13.42],[121.14,13.41],[121.14,13.36],[121.14,13.41],[121.2,13.44],[121.26,13.36],[121.3,13.35],[121.38,13.24],[121.44,13.23],[121.44,13.13],[121.51,13.15],[121.56,13.12],[121.56,13.09],[121.49,13.02],[121.5,12.94],[121.48,12.77],[121.55,12.67],[121.56,12.62],[121.55,12.66],[121.53,12.6],[121.56,12.61],[121.51,12.55],[121.44,12.52],[121.45,12.48],[121.41,12.44],[121.41,12.4],[121.45,12.36],[121.38,12.36],[121.4,12.29],[121.37,12.28],[121.37,12.33],[121.34,12.33],[121.33,12.29],[121.28,12.28],[121.24,12.21],[121.16,12.26],[121.11,12.24],[121.09,12.29],[121.13,12.29],[121.14,12.33],[121.11,12.31],[121.12,12.35],[121.09,12.36],[121.08,12.33],[120.98,12.43],[120.92,12.52],[120.93,12.62],[120.86,12.72],[120.79,12.73],[120.78,12.82],[120.76,12.84],[120.79,12.91],[120.77,13.0],[120.76,13.02],[120.77,12.98],[120.65,13.19],[120.57,13.23],[120.52,13.22],[120.52,13.27],[120.48,13.29],[120.46,13.41],[120.39,13.41],[120.38,13.38],[120.31,13.42],[120.3,13.45],[120.33,13.49],[120.43,13.53]]],[[[121.87,13.57],[121.92,13.53],[121.93,13.54],[121.96,13.53],[121.97,13.56],[121.97,13.53],[122.0,13.52],[122.01,13.55],[122.02,13.51],[122.05,13.51],[122.04,13.48],[122.09,13.49],[122.13,13.46],[122.1,13.42],[122.15,13.37],[122.05,13.28],[122.03,13.2],[121.87,13.28],[121.82,13.34],[121.81,13.45],[121.87,13.54],[121.85,13.54],[121.87,13.57]]],[[[120.31,13.68],[120.41,13.65],[120.42,13.63],[120.31,13.68]]],[[[120.29,13.84],[120.34,13.81],[120.31,13.77],[120.26,13.81],[120.29,13.84]]],[[[120.09,13.86],[120.2,13.81],[120.22,13.82],[120.29,13.73],[120.25,13.72],[120.29,13.71],[120.3,13.69],[120.27,13.67],[120.25,13.7],[120.1,13.78],[120.08,13.85],[120.09,13.86]]],[[[120.04,13.9],[120.05,13.87],[120.02,13.89],[120.04,13.9]]]]}},{"type":"Feature","properties":{"region_id":"19","region_name":"Bangsamoro (BARMM)","region_short":"BARMM"},"geometry":{"type":"MultiPolygon","coordinates":[[[[119.42,4.76],[119.4,4.67],[119.41,4.73],[119.39,4.74],[119.42,4.79],[119.42,4.76]]],[[[119.83,4.82],[119.87,4.79],[119.82,4.8],[119.83,4.82]]],[[[119.46,4.91],[119.51,4.76],[119.46,4.64],[119.46,4.91]]],[[[119.8,4.93],[119.85,4.9],[119.85,4.86],[119.8,4.86],[119.8,4.93]]],[[[120.02,5.01],[119.99,4.95],[119.99,5.01],[120.02,5.01]]],[[[119.78,5.03],[119.77,5.01],[119.74,5.01],[119.74,5.03],[119.78,5.03]]],[[[120.12,5.03],[120.13,5.0],[120.1,5.03],[120.12,5.03]]],[[[120.22,5.03],[120.18,5.02],[120.21,5.05],[120.22,5.03]]],[[[119.81,5.12],[119.82,5.06],[119.74,5.04],[119.77,5.1],[119.81,5.12]]],[[[120.31,5.12],[120.3,5.09],[120.27,5.09],[120.31,5.12]]],[[[120.35,5.15],[120.32,5.13],[120.32,5.16],[120.35,5.15]]],[[[120.5,5.18],[120.5,5.16],[120.48,5.2],[120.5,5.18]]],[[[120.32,5.25],[120.31,5.23],[120.3,5.24],[120.32,5.25]]],[[[120.31,5.2],[120.25,5.18],[120.27,5.26],[120.31,5.2]]],[[[120.36,5.26],[120.34,5.18],[120.33,5.22],[120.36,5.26]]],[[[120.21,5.35],[120.22,5.3],[120.25,5.28],[120.22,5.12],[120.17,5.14],[120.19,5.18],[120.17,5.19],[120.16,5.16],[120.12,5.21],[120.12,5.24],[120.1,5.15],[120.07,5.15],[120.07,5.17],[120.04,5.15],[120.06,5.16],[120.04,5.18],[120.0,5.15],[119.96,5.08],[119.93,5.09],[119.85,5.06],[119.86,5.05],[119.82,5.06],[119.81,5.13],[119.83,5.15],[119.94,5.19],[119.98,5.24],[120.08,5.26],[120.08,5.28],[120.21,5.35]]],[[[120.32,5.39],[120.33,5.38],[120.29,5.37],[120.32,5.39]]],[[[120.6,5.4],[120.57,5.41],[120.58,5.44],[120.61,5.41],[120.6,5.4]]],[[[120.24,5.46],[120.23,5.45],[120.25,5.44],[120.23,5.44],[120.24,5.46]]],[[[120.82,5.52],[120.84,5.48],[120.81,5.46],[120.82,5.52]]],[[[120.8,5.48],[120.78,5.48],[120.81,5.53],[120.8,5.48]]],[[[120.8,5.57],[120.8,5.52],[120.76,5.5],[120.75,5.53],[120.8,5.57]]],[[[120.85,5.59],[120.91,5.54],[120.86,5.49],[120.81,5.55],[120.85,5.59]]],[[[121.07,5.68],[121.04,5.66],[121.01,5.68],[121.07,5.68]]],[[[120.87,5.7],[120.89,5.69],[120.86,5.67],[120.8,5.67],[120.81,5.7],[120.87,5.7]]],[[[120.92,5.76],[120.93,5.72],[120.89,5.7],[120.89,5.74],[120.92,5.76]]],[[[121.15,5.85],[121.19,5.83],[121.21,5.8],[121.14,5.79],[121.15,5.85]]],[[[119.94,5.89],[119.96,5.86],[119.92,5.87],[119.94,5.89]]],[[[119.97,5.89],[119.97,5.87],[120.02,5.89],[119.97,5.86],[119.97,5.89]]],[[[120.0,5.94],[120.01,5.89],[119.98,5.92],[120.0,5.94]]],[[[121.59,5.98],[121.6,5.95],[121.57,5.93],[121.56,5.96],[121.59,5.98]]],[[[120.12,5.96],[120.12,5.92],[120.1,5.99],[120.12,5.96]]],[[[121.56,6.03],[121.52,6.0],[121.54,6.04],[121.56,6.03]]],[[[121.42,6.05],[121.43,6.02],[121.39,6.02],[121.38,6.04],[121.42,6.05]]],[[[121.68,6.06],[121.73,6.03],[121.67,5.99],[121.65,6.0],[121.69,6.03],[121.67,6.04],[121.68,6.06]]],[[[121.11,6.09],[121.15,6.08],[121.21,6.0],[121.28,6.02],[121.37,5.99],[121.39,6.01],[121.43,5.96],[121.39,5.94],[121.38,5.9],[121.35,5.92],[121.28,5.86],[121.24,5.89],[121.24,5.94],[121.2,5.95],[121.14,5.91],[121.07,5.9],[121.08,5.88],[121.02,5.93],[120.94,5.89],[120.88,5.92],[120.87,5.96],[120.92,6.03],[121.0,6.05],[121.02,6.09],[121.11,6.09]]],[[[121.77,6.09],[121.86,6.02],[121.95,6.05],[121.86,6.0],[121.78,6.05],[121.76,6.08],[121.77,6.09]]],[[[118.34,6.07],[118.32,6.09],[118.34,6.11],[118.34,6.07]]],[[[120.54,6.15],[120.56,6.13],[120.54,6.11],[120.54,6.15]]],[[[121.84,6.15],[121.85,6.12],[121.82,6.12],[121.84,6.15]]],[[[120.46,6.17],[120.45,6.13],[120.41,6.15],[120.46,6.17]]],[[[121.82,6.18],[121.83,6.15],[121.81,6.13],[121.79,6.15],[121.82,6.18]]],[[[120.97,6.21],[120.99,6.18],[120.96,6.17],[120.97,6.21]]],[[[121.96,6.31],[121.99,6.31],[121.99,6.29],[122.02,6.29],[121.97,6.28],[121.96,6.31]]],[[[120.66,6.32],[120.66,6.28],[120.63,6.25],[120.62,6.27],[120.65,6.29],[120.65,6.27],[120.65,6.3],[120.64,6.29],[120.66,6.32]]],[[[120.86,6.34],[120.88,6.32],[120.84,6.31],[120.86,6.34]]],[[[122.03,6.35],[122.04,6.33],[122.02,6.33],[122.03,6.35]]],[[[121.98,6.36],[121.99,6.34],[121.96,6.34],[121.95,6.35],[121.98,6.36]]],[[[120.6,6.39],[120.58,6.25],[120.48,6.25],[120.48,6.27],[120.52,6.27],[120.56,6.37],[120.6,6.39]]],[[[120.71,6.44],[120.71,6.4],[120.67,6.4],[120.71,6.44]]],[[[122.21,6.47],[122.22,6.45],[122.2,6.46],[122.21,6.47]]],[[[121.59,6.65],[121.59,6.63],[121.57,6.63],[121.59,6.65]]],[[[121.59,6.68],[121.63,6.65],[121.61,6.65],[121.63,6.64],[121.62,6.56],[121.62,6.6],[121.56,6.7],[121.59,6.68]]],[[[122.06,6.75],[122.1,6.71],[122.14,6.72],[122.14,6.67],[122.24,6.67],[122.31,6.65],[122.33,6.62],[122.3,6.59],[122.21,6.58],[122.18,6.45],[121.96,6.41],[121.96,6.43],[121.87,6.5],[121.88,6.56],[121.8,6.6],[121.79,6.63],[121.83,6.68],[121.89,6.66],[121.93,6.67],[121.99,6.74],[122.06,6.75]]],[[[121.99,6.75],[121.97,6.71],[121.94,6.71],[121.95,6.74],[121.99,6.75]]],[[[121.47,6.75],[121.47,6.73],[121.45,6.75],[121.46,6.76],[121.47,6.75]]],[[[118.51,7.05],[118.53,7.03],[118.51,6.99],[118.54,6.96],[118.43,6.99],[118.41,7.02],[118.51,7.05]]],[[[124.08,7.38],[124.02,7.3],[124.02,7.33],[124.08,7.38]]],[[[124.55,8.02],[124.63,7.85],[124.66,7.84],[124.73,7.73],[124.75,7.65],[124.81,7.61],[124.7,7.64],[124.65,7.61],[124.61,7.62],[124.54,7.68],[124.44,7.65],[124.43,7.52],[124.49,7.44],[124.42,7.3],[124.41,7.3],[124.33,7.17],[124.37,7.17],[124.41,7.23],[124.51,7.23],[124.43,7.09],[124.5,7.03],[124.53,7.04],[124.59,6.97],[124.63,6.97],[124.66,6.95],[124.72,7.0],[124.68,7.08],[124.7,7.07],[124.71,7.1],[124.73,7.08],[124.73,7.1],[124.74,7.1],[124.69,7.15],[124.7,7.18],[124.71,7.19],[124.79,7.11],[124.79,7.08],[124.82,7.08],[124.82,7.06],[124.79,7.06],[124.79,7.01],[124.81,7.0],[124.81,6.78],[124.9,6.78],[125.0,6.72],[124.88,6.65],[124.8,6.65],[124.75,6.78],[124.67,6.78],[124.7,6.87],[124.66,6.88],[124.56,6.86],[124.58,6.8],[124.51,6.72],[124.28,6.72],[124.27,6.75],[124.04,6.75],[124.01,6.79],[123.97,6.77],[123.98,6.79],[123.94,6.82],[123.98,6.87],[123.96,6.89],[123.97,6.96],[124.05,7.13],[124.17,7.2],[124.24,7.17],[124.16,7.2],[124.19,7.25],[124.22,7.24],[124.2,7.35],[124.26,7.35],[124.26,7.37],[124.24,7.42],[124.16,7.4],[124.18,7.41],[124.13,7.45],[124.14,7.46],[124.03,7.63],[123.92,7.69],[123.82,7.7],[123.84,7.74],[124.0,7.69],[124.05,7.83],[124.02,7.9],[124.11,7.9],[124.14,7.97],[124.13,8.0],[124.21,8.02],[124.28,8.08],[124.3,8.21],[124.33,8.21],[124.5,8.13],[124.55,8.02]]]]}}]}